NAYIF-1 (EO-88)         
1 42017U 17008BX  20123.72691812  .00001600  00000-0  64275-4 0  9999
2 42017  97.3626 191.9517 0007827 117.6627 242.5407 15.26379989178577
MAX VALIER SAT          
1 42778U 17036P   20123.79833047  .00000927  00000-0  42857-4 0  9992
2 42778  97.3093 178.6873 0012397 174.6912 185.4458 15.22543021158782
RADFXSAT (FOX-1B)       
1 43017U 17073E   20123.71962150  .00000307  00000-0  29548-4 0  9994
2 43017  97.7246  37.7193 0256566 199.0712 160.0759 14.78895674132408
FOX-1D (AO-92)          
1 43137U 18004AC  20123.85374244  .00000993  00000-0  43897-4 0  9992
2 43137  97.4480 195.3190 0008365 206.5015 153.5795 15.24041930128107
DIWATA-2B               
1 43678U 18084H   20123.85841805 -.00000106  00000-0 -47862-5 0  9997
2 43678  97.8760 242.2797 0009342 335.8715  24.2040 14.91623415 82222
ES'HAIL 2               
1 43700U 18090A   20123.83419647  .00000137  00000-0  00000-0 0  9993
2 43700   0.0118 202.5005 0001191 197.6958 147.0678  1.00273134  5253
FOX-1CLIFF (AO-95)      
1 43770U 18099N   20123.86081224  .00000214  00000-0  24825-4 0  9999
2 43770  97.7077 196.0302 0014257 355.3749   4.7338 14.94960694 77108
ITASAT 1                
1 43786U 18099AE  20123.73429115  .00000368  00000-0  38572-4 0  9991
2 43786  97.7093 196.2924 0014694 349.0985  10.9915 14.95303722 77106
JY1SAT (JO-97)          
1 43803U 18099AX  20123.88796044  .00000658  00000-0  64601-4 0  9999
2 43803  97.7055 196.2735 0014640 349.7546  10.3374 14.95478001 77123
PSAT2 (NO-104)          
1 44354U 19036R   20123.84443319  .00012568  00000-0  18450-3 0  9996
2 44354  28.5316 320.0098 0366518 184.0822 175.6732 15.02899695 46952
BRICSAT2 (NO-103)       
1 44355U 19036S   20123.87470973  .00022398  00000-0  31751-3 0  9997
2 44355  28.5319 313.4322 0347297 194.7860 164.2349 15.07752548 47022
JAISAT-1                
1 44419U 19038F   20123.84792908  .00000897  00000-0  54799-4 0  9990
2 44419  97.5347  85.9923 0020022 289.8236  70.0836 15.12718062 45702
DUCHIFAT-3              
1 44854U 19089C   20123.86752526  .00000413  00000-0  39852-4 0  9990
2 44854  36.9684   7.7479 0007647  43.9716 316.1622 14.99039570 21451
DOSAAF 85 (RS-44)       
1 44909U 19096E   20123.77798296  .00000010  00000-0  00000-0 0  9995
2 44909  82.5239  25.6644 0217293 333.6254  25.3906 12.79706786 16346
ORBITAL FACTORY 2 (OF-2)
1 45113U 19071C   20123.72949555  .00001390  00000-0  54230-4 0  9997
2 45113  51.6431 224.4009 0012611 252.2571 107.7034 15.33199067 14115
HUSKYSAT-1              
1 45119U 19071J   20123.71460696  .00001379  00000-0  53532-4 0  9997
2 45119  51.6439 224.3021 0011933 248.1301 111.8413 15.33429557 14109
